{"fetched_at":"2026-04-30T17:21:10Z","count":3847,"tles":[{"name":"STARLINK-3921","line1":"1 52613U 22052R   23361.92642137 -.00000385  00000+0 -61119-5 0  9997","line2":"2 52613  53.2168 272.8664 0001517 105.8484 254.2675 15.08841760 89809","category":"Starlink"},{"name":"STARLINK-11245 [DTC]","line1":"1 60925U 24155B   26120.15896941  .00004013  00000+0  37979-4 0  9999","line2":"2 60925  53.1603  87.7178 0001127  99.8159 260.2986 15.69703303 96489","category":"Starlink"},{"name":"STARLINK-35739","line1":"1 67053U 25294Z   26119.33836278  .00011008  00000+0  40891-3 0  9996","line2":"2 67053  43.0009 112.1748 0001083 264.7582  95.3147 15.27582020 22543","category":"Starlink"},{"name":"FENGYUN 1C DEB","line1":"1 30602U 99025AMH 26104.83565584  .00253746  00000+0  67192-2 0  9996","line2":"2 30602  99.0112  44.9876 0019944 121.7644 304.4947 15.37147133996601","category":"Weather"},{"name":"STARLINK-1834","line1":"1 46781U 20074AU  23362.18429104  .00016334  00000+0  11123-2 0  9990","line2":"2 46781  53.0551 324.2015 0001468  87.2302 272.8855 15.06421018175452","category":"Starlink"},{"name":"STARLINK-6059","line1":"1 56814U 23078AZ  26119.96323475 -.00002225  00000+0 -17863-3 0  9992","line2":"2 56814  70.0001 215.0479 0003185 272.4280  87.6515 14.98344228160367","category":"Starlink"},{"name":"STARLINK-34828","line1":"1 65353U 25190C   26119.73028641  .00011171  00000+0  38872-3 0  9990","line2":"2 65353  53.1599 290.8206 0001235  99.0682 261.0459 15.30200814 37571","category":"Starlink"},{"name":"STARLINK-32638","line1":"1 62424U 24249R   26120.17697733  .00034835  00000+0  12682-2 0  9996","line2":"2 62424  43.0013  34.9279 0001396 272.9562  87.1129 15.27611983 75550","category":"Starlink"},{"name":"STARLINK-36830","line1":"1 68110U 26044K   26119.85844266  .00025168  00000+0  77906-3 0  9997","line2":"2 68110  97.2849  80.8238 0001814  95.7215 264.4234 15.33455192  9427","category":"Starlink"},{"name":"CANYVAL-C (PUMBAA)","line1":"1 47938U 21022G   25150.36328006  .08208755  25634-5  10107-2 0  9990","line2":"2 47938  97.3949  64.7229 0009697 222.3257 137.7293 16.36156971232361","category":"Other"},{"name":"STARLINK-32158","line1":"1 60267U 24131N   26120.11079198 -.00000574  00000+0 -72558-5 0  9998","line2":"2 60267  53.1581 173.4215 0001089  79.3346 280.7777 15.30191586 99497","category":"Starlink"},{"name":"CHUTIAN-2 A","line1":"1 66409U 25256A   26119.45624025  .00000545  00000+0  15143-3 0  9992","line2":"2 66409  98.2530 186.6199 0014647 118.5407 241.7264 14.50153346 24837","category":"Other"},{"name":"OPS 7329","line1":"1 04510U 70069A   26104.57199610 -.00000162  00000+0  00000+0 0  9991","line2":"2 04510  10.5680 159.1408 1011521 107.0196  57.3873  1.00164326 24153","category":"Other"},{"name":"FENGYUN 1C DEB","line1":"1 40689U 99025EWV 26103.98843108  .00001027  00000+0  94841-3 0  9993","line2":"2 40689  99.1265  19.8651 0309033 143.5705 218.6908 13.65172246565517","category":"Weather"},{"name":"STARLINK-4681","line1":"1 53594U 22104G   26120.16667823  .00346233  00000+0  50913-2 0  9995","line2":"2 53594  53.2171   4.9765 0000996  82.7649 179.5691 15.53735768  5641","category":"Starlink"},{"name":"FENGYUN 1C DEB","line1":"1 31828U 99025CHS 23178.89209759  .00042986  00000+0  79505-2 0  9993","line2":"2 31828  99.2674 203.6147 0130433 116.2984 245.1680 14.59801201842178","category":"Weather"},{"name":"COSMOS 2552","line1":"1 49503U 21113A   26117.59820109 -.00000345  00000+0  00000+0 0  9991","line2":"2 49503  62.8464 212.0271 6452345 272.5339  20.5073  2.00576511 32388","category":"Other"},{"name":"FALCON 9 R/B","line1":"1 41381U 16013B   26104.45052818 -.00001169  00000+0 -40141-3 0  9995","line2":"2 41381  27.4593 270.3961 7420139 279.4968  10.9335  2.05327654 74004","category":"Other"},{"name":"STARLINK-6028","line1":"1 56818U 23078BD  26120.02164797  .00001104  00000+0  10028-3 0  9994","line2":"2 56818  70.0003 214.8497 0003100 271.5877  88.4927 14.98334247161063","category":"Starlink"},{"name":"STARLINK-11082 [DTC]","line1":"1 59711U 24088D   26120.16019558  .00001527  00000+0  17458-4 0  9994","line2":"2 59711  53.1598  72.7326 0000852 108.7399 251.3712 15.69702967114352","category":"Starlink"},{"name":"IRIDIUM 33 DEB","line1":"1 35051U 97051NX  26104.82899343  .00001052  00000+0  27646-3 0  9990","line2":"2 35051  86.3219 315.2056 0009929  48.7259 311.4798 14.48255716887774","category":"Other"},{"name":"STARLINK-3996","line1":"1 52617U 22052V   26120.14735390 -.00002337  00000+0 -12879-3 0  9991","line2":"2 52617  53.2194  38.1189 0001395  89.4195 270.6957 15.08831628218752","category":"Starlink"},{"name":"SAUDICOMSAT 1","line1":"1 28369U 04025D   26119.96186360  .00000369  00000+0  95764-4 0  9999","line2":"2 28369  98.5791 128.7906 0032396 169.1138 191.0766 14.55435323157114","category":"Other"},{"name":"STARLINK-1142","line1":"1 45093U 20006BB  23361.92397446  .00003953  00000+0  28413-3 0  9998","line2":"2 45093  53.0540 250.3725 0001575  96.7899 263.3269 15.06398958216026","category":"Starlink"},{"name":"FENGYUN 1C DEB","line1":"1 30954U 99025BAU 26104.23863159  .00001119  00000+0  54969-3 0  9993","line2":"2 30954  98.7087 206.5274 0127921 196.5258 193.1761 14.15462839981207","category":"Weather"},{"name":"STARLINK-2046","line1":"1 47354U 21005F   26120.20976647  .00001504  00000+0  60233-4 0  9990","line2":"2 47354  53.1584 144.4705 0001278  85.0293 275.0855 15.31700914291466","category":"Starlink"},{"name":"COSMOS 2251 DEB","line1":"1 38485U 93036BTV 23177.89455642  .00009939  00000+0  16987-2 0  9994","line2":"2 38485  74.0148 149.9340 0039070 161.1132 199.1498 14.68475480 44701","category":"Other"},{"name":"HIBER-3","line1":"1 47942U 21022L   25029.56820695  .07037280  25398-5  14644-2 0  9992","line2":"2 47942  97.4030 304.2177 0006523 138.6889 221.4900 16.31042332213867","category":"Other"},{"name":"STARLINK-4676","line1":"1 53598U 22104L   26119.99321088  .00000630  00000+0  57672-4 0  9997","line2":"2 53598  53.2176  13.5489 0001393  88.8317 271.2835 15.08838060203368","category":"Starlink"},{"name":"STARLINK-30252","line1":"1 57607U 23119F   26118.98076667  .00000496  00000+0  27561-4 0  9991","line2":"2 57607  43.0039 142.6170 0001143 275.5835  84.4886 15.27574858150951","category":"Starlink"},{"name":"STARLINK-5604","line1":"1 55420U 23014AF  26119.86380847  .00000045  00000+0  11593-4 0  9990","line2":"2 55420  69.9991 275.4483 0002794 267.9676  92.1163 14.98328898180213","category":"Starlink"},{"name":"KZ-1A R/B","line1":"1 58704U 24004E   24015.95465067  .87710467  27147-5  10000-3 0  9998","line2":"2 58704  97.3906 201.3648 0020506 274.9857 222.4615 16.67263404  1652","category":"Other"},{"name":"FENGYUN 1C DEB","line1":"1 31953U 99025CNE 23178.52740760  .00016210  00000+0  49599-2 0  9995","line2":"2 31953  99.3479  86.0020 0132395 227.5694 131.4232 14.36900380825249","category":"Weather"},{"name":"SHIJIAN-6 05A (SJ-6 05A)","line1":"1 49961U 21122A   26120.20968973  .00002600  00000+0  21731-3 0  9996","line2":"2 49961  97.4078  91.1012 0002516  85.1288 275.0223 14.99321551241565","category":"Other"},{"name":"TITAN 34D IUS R/B(2)","line1":"1 13643U 82106D   26104.76416373 -.00000159  00000+0  00000+0 0  9998","line2":"2 13643   9.4932 310.6348 0040563  66.3462 277.6388  0.99386578119126","category":"Other"},{"name":"PATHFINDER 1","line1":"1 41787U 16059E   26120.00285007  .00000797  00000+0  14776-3 0  9991","line2":"2 41787  97.8176 121.4549 0028535   3.0510 357.0864 14.67603362512644","category":"Other"},{"name":"STARLINK-6171","line1":"1 56883U 23083H   26120.15174203  .00000885  00000+0  42664-4 0  9996","line2":"2 56883  43.0052 154.3295 0001822 296.5412  63.5253 15.26743129159501","category":"Starlink"},{"name":"FENGYUN 1C DEB","line1":"1 35192U 99025DNY 23177.87133841  .00011205  00000+0  17421-2 0  9995","line2":"2 35192  99.1500 228.1806 0174897 280.8103  77.3454 14.63434340819641","category":"Weather"},{"name":"STARLINK-4005","line1":"1 52686U 22053AG  26119.83782994  .00000333  00000+0  38993-4 0  9992","line2":"2 52686  53.2178 274.7869 0001335  88.3679 271.7466 15.08840770218847","category":"Starlink"},{"name":"SSETI EXPRESS (XO-53)","line1":"1 28894U 05043E   25045.64234044  .00001264  00000+0  24801-3 0  9996","line2":"2 28894  98.2360 177.8729 0016309  12.5367 347.6238 14.64399784 28890","category":"Other"},{"name":"STARLINK-1154","line1":"1 45198U 20012W   26120.19389801  .00100350  00000+0  14977-2 0  9990","line2":"2 45198  53.0427 122.7216 0004015 351.2580   8.8359 15.54273612343284","category":"Starlink"},{"name":"FENGYUN 1C DEB","line1":"1 31047U 99025BER 26104.27957117  .00000452  00000+0  25929-3 0  9992","line2":"2 31047  98.7078 103.5065 0025273 187.6162 187.2623 14.14064164980913","category":"Weather"},{"name":"LEMUR-2-NEVA","line1":"1 47450U 21006AP  23362.15779959  .00388861  00000+0  22302-2 0  9991","line2":"2 47450  97.3644  66.7161 0000713 144.1268 216.0046 15.77723438162824","category":"Other"},{"name":"AEROCUBE 4.5A","line1":"1 38767U 12048K   26120.20323545  .00168454  00000+0  11281-2 0  9993","line2":"2 38767  64.6322 199.1899 0023170 215.5340 144.4270 15.74156973365065","category":"Other"},{"name":"STARLINK-2278","line1":"1 48026U 21024BB  23362.23635177  .00010150  00000+0  69910-3 0  9993","line2":"2 48026  53.0569 338.9681 0001624  93.4865 266.6310 15.06411241153071","category":"Starlink"},{"name":"STARLINK-4440","line1":"1 53671U 22105Z   26120.10962875  .00000448  00000+0  35230-4 0  9993","line2":"2 53671  97.5551   0.7152 0002239  85.2234 274.9248 15.05649003200967","category":"Starlink"},{"name":"STARLINK-30320","line1":"1 57678U 23124R   26119.93164245  .00003288  00000+0  12316-3 0  9994","line2":"2 57678  53.1600 316.0331 0001182 109.7613 250.3516 15.30180434151598","category":"Starlink"},{"name":"STARLINK-5364","line1":"1 55491U 23015AU  26120.16667823  .00107344  00000+0  49449-2 0  9995","line2":"2 55491  43.0016  30.2776 0002037 268.9555  57.6991 15.19186010  5797","category":"Starlink"}]}